NORAD_CAT_ID,OBJECT_NAME,OBJECT_TYPE,EPOCH,MEAN_MOTION,ECCENTRICITY,INCLINATION,RA_OF_ASC_NODE,ARG_OF_PERICENTER,MEAN_ANOMALY,BSTAR,MEAN_MOTION_DOT,MEAN_MOTION_DDOT,TLE_LINE0,TLE_LINE1,TLE_LINE2,SEMIMAJOR_AXIS,PERIOD,APOGEE,PERIGEE,DECAYED
53003.0,STARLINK-4255,PAYLOAD,2023-01-17 12:26:01,15.08843006,0.0001606,53.2165,203.9752,67.9161,292.2001,8.3671e-06,-1.55e-06,0.0,0 STARLINK-4255,1 53003U 22076T   23017.51806765 -.00000155  00000-0  83671-5 0  9991,2 53003  53.2165 203.9752 0001606  67.9161 292.2001 15.08843006 29660,6917.871,95.437,540.847,538.625,0.0
53003.0,STARLINK-4255,PAYLOAD,2023-01-17 18:47:33,15.08845005,0.0001601,53.2166,202.7859,68.4158,291.7005,4.0181e-05,3.52e-06,0.0,0 STARLINK-4255,1 53003U 22076T   23017.78302607  .00000352  00000-0  40181-4 0  9992,2 53003  53.2166 202.7859 0001601  68.4158 291.7005 15.08845005 29707,6917.865,95.437,540.8380000000001,538.623,0.0
53003.0,STARLINK-4255,PAYLOAD,2023-01-18 10:41:24,15.08842446,0.0001571999999999,53.2176,199.8121,71.8441,288.2722,0.0001007,1.315e-05,0.0,0 STARLINK-4255,1 53003U 22076T   23018.44542522  .00001315  00000-0  10070-3 0  9991,2 53003  53.2176 199.8121 0001572  71.8441 288.2722 15.08842446 30273,6917.8730000000005,95.437,540.825,538.65,0.0
53003.0,STARLINK-4255,PAYLOAD,2023-01-18 18:38:20,15.08847569,0.0001545,53.2178,198.3257,70.8363,289.2797,0.00011032,1.469e-05,0.0,0 STARLINK-4255,1 53003U 22076T   23018.77662099  .00001469  00000-0  11032-3 0  9998,2 53003  53.2178 198.3257 0001545  70.8363 289.2797 15.08847569 29857,6917.857,95.437,540.7909999999999,538.653,0.0
53003.0,STARLINK-4255,PAYLOAD,2023-01-19 12:07:35,15.0883618,0.0001587,53.2183,195.0551,70.0401,290.0762,4.9124e-05,4.94e-06,0.0,0 STARLINK-4255,1 53003U 22076T   23019.50527122  .00000494  00000-0  49124-4 0  9998,2 53003  53.2183 195.0551 0001587  70.0401 290.0762 15.08836180 30430,6917.892,95.438,540.855,538.659,0.0
53003.0,STARLINK-4255,PAYLOAD,2023-01-20 04:01:26,15.08837532,0.0001491,53.2178,192.0817,69.1124,291.0027,5.5569e-05,5.96e-06,0.0,0 STARLINK-4255,1 53003U 22076T   23020.16767088  .00000596  00000-0  55569-4 0  9992,2 53003  53.2178 192.0817 0001491  69.1124 291.0027 15.08837532 30067,6917.888000000001,95.438,540.784,538.721,0.0
53003.0,STARLINK-4255,PAYLOAD,2023-01-20 18:19:54,15.08840375,0.0001478,53.2185,189.4059,74.5886,285.5269,4.1363e-05,3.700000000000001e-06,0.0,0 STARLINK-4255,1 53003U 22076T   23020.76383032  .00000370  00000-0  41363-4 0  9998,2 53003  53.2185 189.4059 0001478  74.5886 285.5269 15.08840375 30620,6917.879,95.438,540.7669999999999,538.722,0.0
53003.0,STARLINK-4255,PAYLOAD,2023-01-22 11:39:56,15.08832757,0.0001534,53.2183,181.6742,85.0909,275.0258,0.00014084,1.954e-05,0.0,0 STARLINK-4255,1 53003U 22076T   23022.48607538  .00001954  00000-0  14084-3 0  9997,2 53003  53.2183 181.6742 0001534  85.0909 275.0258 15.08832757 30882,6917.903,95.438,540.8290000000001,538.706,0.0
53003.0,STARLINK-4255,PAYLOAD,2023-01-22 19:36:51,15.0884608,0.000151,53.219,180.1872,80.6685,279.4478,7.7934e-05,9.53e-06,0.0,0 STARLINK-4255,1 53003U 22076T   23022.81726821  .00000953  00000-0  77934-4 0  9993,2 53003  53.2190 180.1872 0001510  80.6685 279.4478 15.08846080 30936,6917.861999999999,95.437,540.771,538.682,0.0
53003.0,STARLINK-4255,PAYLOAD,2023-01-23 19:27:36,15.08892497,0.0006097,53.2199,175.7278,70.9895,289.1757,0.00048905,7.516e-05,0.0,0 STARLINK-4255,1 53003U 22076T   23023.81084268  .00007516  00000-0  48905-3 0  9993,2 53003  53.2199 175.7278 0006097  70.9895 289.1757 15.08892497 31083,6917.72,95.434,543.803,535.367,0.0
53003.0,STARLINK-4255,PAYLOAD,2023-01-24 06:00:00,15.08811402,0.0001075,53.2171,173.7556,87.1199,139.6297,0.0038272,0.00061102,0.0,0 STARLINK-4255,1 53003U 22076T   23024.25001157  .00061102  00000-0  38272-2 0  9994,2 53003  53.2171 173.7556 0001075  87.1199 139.6297 15.08811402 31151,6917.968000000001,95.439,540.576,539.089,0.0
53003.0,STARLINK-4255,PAYLOAD,2023-01-24 17:43:02,15.08851938,0.0001224,53.2191,171.5646,81.4298,278.6833,0.00011866,1.602e-05,0.0,0 STARLINK-4255,1 53003U 22076T   23024.73822273  .00001602  00000-0  11866-3 0  9997,2 53003  53.2191 171.5646 0001224  81.4298 278.6833 15.08851938 31228,6917.844,95.437,540.556,538.862,0.0
53003.0,STARLINK-4255,PAYLOAD,2023-01-25 09:36:52,15.08888646,0.0001399,53.2224,168.5936,69.1133,291.0009,-0.00030731,-5.182e-05,0.0,0 STARLINK-4255,1 53003U 22076T   23025.40061248 -.00005182  00000-0 -30731-3 0  9990,2 53003  53.2224 168.5936 0001399  69.1133 291.0009 15.08888646 31328,6917.732,95.434,540.564,538.629,0.0
53003.0,STARLINK-4255,PAYLOAD,2023-01-25 12:47:40,15.08851718,0.0002210999999999,53.2216,167.9988,86.7529,273.3716,-0.00010122,-1.899e-05,0.0,0 STARLINK-4255,1 53003U 22076T   23025.53311236 -.00001899  00000-0 -10122-3 0  9992,2 53003  53.2216 167.9988 0002211  86.7529 273.3716 15.08851718 30874,6917.845,95.437,541.239,538.18,0.0
53003.0,STARLINK-4255,PAYLOAD,2023-01-25 15:58:25,15.08883766,0.0002331,53.2184,167.4019,81.3005,278.8251,-0.00058025,-9.523e-05,0.0,0 STARLINK-4255,1 53003U 22076T   23025.66557574 -.00009523  00000-0 -58025-3 0  9999,2 53003  53.2184 167.4019 0002331  81.3005 278.8251 15.08883766 31368,6917.746999999999,95.435,541.224,537.999,0.0
53003.0,STARLINK-4255,PAYLOAD,2023-01-25 19:09:13,15.08843184,9.7e-05,53.2188,166.8061,89.5347,270.5756,0.00010594,1.399e-05,0.0,0 STARLINK-4255,1 53003U 22076T   23025.79806820  .00001399  00000-0  10594-3 0  9994,2 53003  53.2188 166.8061 0000970  89.5347 270.5756 15.08843184 30917,6917.871,95.437,540.4069999999999,539.065,0.0
53003.0,STARLINK-4255,PAYLOAD,2023-01-26 09:27:41,15.0884318,0.0001346,53.219,164.1303,81.6083,278.5062,1.4261000000000002e-06,-2.65e-06,0.0,0 STARLINK-4255,1 53003U 22076T   23026.39423319 -.00000265  00000-0  14261-5 0  9998,2 53003  53.2190 164.1303 0001346  81.6083 278.5062 15.08843180 31474,6917.871,95.437,540.6669999999999,538.805,0.0
53003.0,STARLINK-4255,PAYLOAD,2023-01-26 14:13:50,15.08844634,0.0001186,53.2187,163.2376,91.4201,268.6927,3.342e-05,2.44e-06,0.0,0 STARLINK-4255,1 53003U 22076T   23026.59295030  .00000244  00000-0  33420-4 0  9990,2 53003  53.2187 163.2376 0001186  91.4201 268.6927 15.08844634 31030,6917.866,95.437,540.552,538.911,0.0
53003.0,STARLINK-4255,PAYLOAD,2023-01-27 14:00:01,15.08873742,8.13e-05,53.2169,158.79399999999998,93.7498,248.9111,-0.004716,-0.00074632,0.0,0 STARLINK-4255,1 53003U 22076T   23027.58334491 -.00074632  00000-0 -47160-2 0  9993,2 53003  53.2169 158.7940 0000813  93.7498 248.9111 15.08873742 31651,6917.776999999999,95.435,540.205,539.08,0.0
53003.0,STARLINK-4255,PAYLOAD,2023-01-27 22:00:00,15.08824299,7.49e-05,53.2164,157.2977,94.4256,259.8427,0.00063821,9.88e-05,0.0,0 STARLINK-4255,1 53003U 22076T   23027.91667824  .00009880  00000-0  63821-3 0  9993,2 53003  53.2164 157.2977 0000749  94.4256 259.8427 15.08824299  1301,6917.928000000001,95.439,540.312,539.275,0.0
53003.0,STARLINK-4255,PAYLOAD,2023-01-28 01:12:20,15.08837162,9.86e-05,53.2182,156.697,99.5285,260.5819,3.9831e-05,3.46e-06,0.0,0 STARLINK-4255,1 53003U 22076T   23028.05023705  .00000346  00000-0  39831-4 0  9996,2 53003  53.2182 156.6970 0000986  99.5285 260.5819 15.08837162 31724,6917.889,95.438,540.436,539.072,0.0
53003.0,STARLINK-4255,PAYLOAD,2023-01-28 13:55:25,15.08839145,0.0001047,53.2183,154.3181,107.9849,252.1257,4.5228e-05,4.32e-06,0.0,0 STARLINK-4255,1 53003U 22076T   23028.58015668  .00000432  00000-0  45228-4 0  9996,2 53003  53.2183 154.3181 0001047 107.9849 252.1257 15.08839145 31336,6917.883,95.438,540.472,539.024,0.0
53003.0,STARLINK-4255,PAYLOAD,2023-01-28 18:41:34,15.08843321,0.0001087,53.2192,153.4242,104.1231,255.9882,7.4703e-05,9.01e-06,0.0,0 STARLINK-4255,1 53003U 22076T   23028.77887414  .00000901  00000-0  74703-4 0  9994,2 53003  53.2192 153.4242 0001087 104.1231 255.9882 15.08843321 31361,6917.87,95.437,540.487,538.983,0.0
53003.0,STARLINK-4255,PAYLOAD,2023-01-29 09:00:04,15.08830421,0.0001338,53.2193,150.7498,89.1487,270.9658,1.6077e-05,-3.2e-07,0.0,0 STARLINK-4255,1 53003U 22076T   23029.37504696 -.00000032  00000-0  16077-4 0  9995,2 53003  53.2193 150.7498 0001338  89.1487 270.9658 15.08830421 31926,6917.91,95.438,540.7,538.849,0.0
53003.0,STARLINK-4255,PAYLOAD,2023-01-29 16:56:59,15.08830675,0.0001135,53.2205,149.2646,96.6261,263.486,3.0422e-05,1.96e-06,0.0,0 STARLINK-4255,1 53003U 22076T   23029.70624815  .00000196  00000-0  30422-4 0  9998,2 53003  53.2205 149.2646 0001135  96.6261 263.4860 15.08830675 31503,6917.909,95.438,540.559,538.989,0.0
53003.0,STARLINK-4255,PAYLOAD,2023-01-30 08:50:50,15.08838659,9.63e-05,53.2205,146.2921,95.4485,264.6617,9.0898e-05,1.159e-05,0.0,0 STARLINK-4255,1 53003U 22076T   23030.36864310  .00001159  00000-0  90898-4 0  9991,2 53003  53.2205 146.2921 0000963  95.4485 264.6617 15.08838659 32075,6917.884,95.438,540.416,539.083,0.0
53003.0,STARLINK-4255,PAYLOAD,2023-01-30 12:01:36,15.08841537,9.91e-05,53.2207,145.6974,93.8096,266.3009,0.00011445,1.534e-05,0.0,0 STARLINK-4255,1 53003U 22076T   23030.50112108  .00001534  00000-0  11445-3 0  9995,2 53003  53.2207 145.6974 0000991  93.8096 266.3009 15.08841537 31622,6917.876,95.437,540.426,539.055,0.0
53003.0,STARLINK-4255,PAYLOAD,2023-01-31 11:52:24,15.08831686,7.7e-05,53.2197,141.2372,74.5858,285.522,0.00023802,3.502e-05,0.0,0 STARLINK-4255,1 53003U 22076T   23031.49472597  .00003502  00000-0  23802-3 0  9992,2 53003  53.2197 141.2372 0000770  74.5858 285.5220 15.08831686 31779,6917.906,95.438,540.303,539.238,0.0
53003.0,STARLINK-4255,PAYLOAD,2023-01-31 16:38:33,15.08843158,0.0001121,53.2181,140.3433,81.5141,278.5978,0.00017402,2.483e-05,0.0,0 STARLINK-4255,1 53003U 22076T   23031.69343992  .00002483  00000-0  17402-3 0  9996,2 53003  53.2181 140.3433 0001121  81.5141 278.5978 15.08843158 32279,6917.871,95.437,540.511,538.96,0.0
